[{"Street":"Havl\u00ED\u010Dkova","Number":"369","PostCode":"73911","City":"Fr\u00FDdlant nad Ostravic\u00ED","Id":1},{"Street":"Stodoln\u00ED","Number":"209/13","PostCode":"73801","City":"Ostrava","Id":2},{"Street":"Havl\u00ED\u010Dkova","Number":"369","PostCode":"73911","City":"Fr\u00FDdlant nad Ostravic\u00ED","Id":3},{"Street":"Stodoln\u00ED","Number":"209/13","PostCode":"73801","City":"Ostrava","Id":4},{"Street":"Havl\u00ED\u010Dkova","Number":"369","PostCode":"73911","City":"Fr\u00FDdlant nad Ostravic\u00ED","Id":5},{"Street":null,"Number":null,"PostCode":null,"City":null,"Id":6},{"Street":"Stodoln\u00ED","Number":"1","PostCode":"73801","City":"Ostrava","Id":7},{"Street":"Havl\u00ED\u010Dkova","Number":"369","PostCode":"73911","City":"Fr\u00FDdlant nad Ostravic\u00ED","Id":8},{"Street":"Havl\u00ED\u010Dkova","Number":"369","PostCode":"73911","City":"Fr\u00FDdlant nad Ostravic\u00ED","Id":9},{"Street":"Havl\u00ED\u010Dkova","Number":"369","PostCode":"73911","City":"Fr\u00FDdlant nad Ostravic\u00ED","Id":10},{"Street":"Havl\u00ED\u010Dkova","Number":"369","PostCode":"73911","City":"Fr\u00FDdlant nad Ostravic\u00ED","Id":11},{"Street":"Havl\u00ED\u010Dkova","Number":"369","PostCode":"73911","City":"Fr\u00FDdlant nad Ostravic\u00ED","Id":12},{"Street":"Havl\u00ED\u010Dkova","Number":"369","PostCode":"73911","City":"Fr\u00FDdlant nad Ostravic\u00ED","Id":13},{"Street":"Prvn\u00ED","Number":"1","PostCode":"77777","City":"Nebesk\u00E9","Id":14},{"Street":"Druh\u00E1","Number":"2","PostCode":"77777","City":"Nebesk\u00E9","Id":15},{"Street":"N\u00E1dra\u017En\u00ED","Number":"94","PostCode":"73603","City":"\u010Cesk\u00FD T\u011B\u0161\u00EDn","Id":16},{"Street":"Stodoln\u00ED","Number":"209/13","PostCode":"73801","City":"Ostrava","Id":17},{"Street":"Bed\u0159ichova","Number":"52","PostCode":"73608","City":"Orlov\u00E1","Id":18},{"Street":"N\u00E1dra\u017En\u00ED","Number":"59","PostCode":"73601","City":"Hav\u00ED\u0159ov","Id":19},{"Street":"\u010Ceskoslovensk\u00E9 arm\u00E1dy","Number":"209/13","PostCode":"736 01","City":"Hav\u00ED\u0159ov - M\u011Bsto","Id":0},{"Street":"\u010Ceskoslovensk\u00E9 arm\u00E1dy","Number":"209/13","PostCode":"736 01","City":"Hav\u00ED\u0159ov - M\u011Bsto","Id":20},{"Street":"\u010Ceskoslovensk\u00E9 arm\u00E1dy, 209/13","Number":"sdva","PostCode":"736 01","City":"Hav\u00ED\u0159ov","Id":21},{"Street":"\u010Ceskoslovensk\u00E9 arm\u00E1dy, 209/13","Number":"dsv","PostCode":"736 01","City":"Hav\u00ED\u0159ov","Id":22},{"Street":"\u010Ceskoslovensk\u00E9 arm\u00E1dy","Number":"52","PostCode":"736 01","City":"Hav\u00ED\u0159ov - M\u011Bsto","Id":23},{"Street":"\u010Ceskoslovensk\u00E9 arm\u00E1dy","Number":"209/13","PostCode":"73601","City":"Hav\u00ED\u0159ov","Id":24},{"Street":"\u010Ceskoslovensk\u00E9 arm\u00E1dy","Number":"369","PostCode":"73601","City":"Hav\u00ED\u0159ov","Id":25},{"Street":"\u010Ceskoslovensk\u00E9 arm\u00E1dy","Number":"59","PostCode":"736 01","City":"Hav\u00ED\u0159ov","Id":26},{"Street":"Havl\u00ED\u010Dkova","Number":"369","PostCode":"73801","City":"Fr\u00FDdek-M\u00EDstek","Id":27},{"Street":"Prvn\u00ED","Number":"59","PostCode":"77777","City":"Nebesk\u00E9","Id":28},{"Street":"Havl\u00ED\u010Dkova","Number":"52","PostCode":"73801","City":"Fr\u00FDdek-M\u00EDstek","Id":29},{"Street":"\u010Ceskoslovensk\u00E9 arm\u00E1dy, 209/13","Number":"59","PostCode":"736 01","City":"Hav\u00ED\u0159ov","Id":30},{"Street":"Havl\u00ED\u010Dkova","Number":"52","PostCode":"73801","City":"Fr\u00FDdek-M\u00EDstek","Id":31},{"Street":"Stodoln\u00ED","Number":"59","PostCode":"73801","City":"Ostrava","Id":32},{"Street":"\u010Ceskoslovensk\u00E9 arm\u00E1dy","Number":"1","PostCode":"736 01","City":"Hav\u00ED\u0159ov - M\u011Bsto","Id":33},{"Street":"\u010Ceskoslovensk\u00E9 arm\u00E1dy","Number":"209/13","PostCode":"73601","City":"Hav\u00ED\u0159ov","Id":34}]